{
  "type": "FeatureCollection",
  "features": [
    {
      "type": "Feature",
      "properties": {
        "norad_id": 30415,
        "name": "FENGYUN 1C DEB",
        "group": "fengyun-1c-debris",
        "lat": -53.918445206918975,
        "lon": -153.55306536846064,
        "alt_km": 900.893574684922,
        "timestamp": "2025-12-05T16:54:14.924483+00:00",
        "meta_object_name": "FENGYUN 1C DEB",
        "meta_object_id": "1999-025AEE",
        "meta_epoch": "2025-12-03T02:29:12.911424",
        "meta_mean_motion": 13.68896976,
        "meta_eccentricity": 0.02374476,
        "meta_inclination": 99.646,
        "meta_ra_of_asc_node": 37.34,
        "meta_arg_of_pericenter": 294.0738,
        "meta_mean_anomaly": 93.2871,
        "meta_ephemeris_type": 0,
        "meta_classification_type": "U",
        "meta_norad_cat_id": 30415,
        "meta_element_set_no": 999,
        "meta_rev_at_epoch": 93746,
        "meta_bstar": 0.0014054844,
        "meta_mean_motion_dot": 1.429e-05,
        "meta_mean_motion_ddot": 0,
        "tle_line1": "1 30415U 99025AEE 25337.10362166  .00001429  00000+0  14055-2 0  9995",
        "tle_line2": "2 30415  99.6460  37.3400 0237447 294.0738  93.2871 13.68896976937468"
      },
      "geometry": {
        "type": "Point",
        "coordinates": [
          -153.55306536846064,
          -53.918445206918975
        ]
      }
    },
    {
      "type": "Feature",
      "properties": {
        "norad_id": 30416,
        "name": "FENGYUN 1C DEB",
        "group": "fengyun-1c-debris",
        "lat": -41.04298464528871,
        "lon": 176.54323554375964,
        "alt_km": 852.1690356852159,
        "timestamp": "2025-12-05T16:54:14.924491+00:00",
        "meta_object_name": "FENGYUN 1C DEB",
        "meta_object_id": "1999-025AEF",
        "meta_epoch": "2025-12-04T14:10:10.725888",
        "meta_mean_motion": 14.02618338,
        "meta_eccentricity": 0.0055007,
        "meta_inclination": 98.8352,
        "meta_ra_of_asc_node": 3.2451,
        "meta_arg_of_pericenter": 212.4466,
        "meta_mean_anomaly": 147.3315,
        "meta_ephemeris_type": 0,
        "meta_classification_type": "U",
        "meta_norad_cat_id": 30416,
        "meta_element_set_no": 999,
        "meta_rev_at_epoch": 96510,
        "meta_bstar": 0.00039409,
        "meta_mean_motion_dot": 5.73e-06,
        "meta_mean_motion_ddot": 0,
        "tle_line1": "1 30416U 99025AEF 25338.59040192  .00000573  00000+0  39409-3 0  9992",
        "tle_line2": "2 30416  98.8352   3.2451 0055007 212.4466 147.3315 14.02618338965109"
      },
      "geometry": {
        "type": "Point",
        "coordinates": [
          176.54323554375964,
          -41.04298464528871
        ]
      }
    },
    {
      "type": "Feature",
      "properties": {
        "norad_id": 30417,
        "name": "FENGYUN 1C DEB",
        "group": "fengyun-1c-debris",
        "lat": 44.8755773310246,
        "lon": 158.63458359184608,
        "alt_km": 793.4686086433703,
        "timestamp": "2025-12-05T16:54:14.924501+00:00",
        "meta_object_name": "FENGYUN 1C DEB",
        "meta_object_id": "1999-025AEG",
        "meta_epoch": "2025-12-04T20:27:21.173760",
        "meta_mean_motion": 14.14650372,
        "meta_eccentricity": 0.00641749,
        "meta_inclination": 98.6925,
        "meta_ra_of_asc_node": 329.0436,
        "meta_arg_of_pericenter": 142.3132,
        "meta_mean_anomaly": 335.4974,
        "meta_ephemeris_type": 0,
        "meta_classification_type": "U",
        "meta_norad_cat_id": 30417,
        "meta_element_set_no": 999,
        "meta_rev_at_epoch": 97277,
        "meta_bstar": 0.00043643557,
        "meta_mean_motion_dot": 8.14e-06,
        "meta_mean_motion_ddot": 0,
        "tle_line1": "1 30417U 99025AEG 25338.85232840  .00000814  00000+0  43644-3 0  9999",
        "tle_line2": "2 30417  98.6925 329.0436 0064174 142.3132 335.4974 14.14650372972771"
      },
      "geometry": {
        "type": "Point",
        "coordinates": [
          158.63458359184608,
          44.8755773310246
        ]
      }
    },
    {
      "type": "Feature",
      "properties": {
        "norad_id": 30418,
        "name": "FENGYUN 1C DEB",
        "group": "fengyun-1c-debris",
        "lat": -42.75914886361351,
        "lon": 147.0038418985378,
        "alt_km": 701.2201503735814,
        "timestamp": "2025-12-05T16:54:14.924510+00:00",
        "meta_object_name": "FENGYUN 1C DEB",
        "meta_object_id": "1999-025AEH",
        "meta_epoch": "2025-12-04T04:39:27.882144",
        "meta_mean_motion": 14.83959262,
        "meta_eccentricity": 0.01114678,
        "meta_inclination": 98.8399,
        "meta_ra_of_asc_node": 137.0581,
        "meta_arg_of_pericenter": 142.7714,
        "meta_mean_anomaly": 30.3115,
        "meta_ephemeris_type": 0,
        "meta_classification_type": "U",
        "meta_norad_cat_id": 30418,
        "meta_element_set_no": 999,
        "meta_rev_at_epoch": 465,
        "meta_bstar": 0.0020769631,
        "meta_mean_motion_dot": 0.00019265,
        "meta_mean_motion_ddot": 0,
        "tle_line1": "1 30418U 99025AEH 25338.19407271  .00019265  00000+0  20770-2 0  9993",
        "tle_line2": "2 30418  98.8399 137.0581 0111467 142.7714  30.3115 14.83959262  4652"
      },
      "geometry": {
        "type": "Point",
        "coordinates": [
          147.0038418985378,
          -42.75914886361351
        ]
      }
    },
    {
      "type": "Feature",
      "properties": {
        "norad_id": 30419,
        "name": "FENGYUN 1C DEB",
        "group": "fengyun-1c-debris",
        "lat": -67.06260630308944,
        "lon": -51.169543319990616,
        "alt_km": 854.1867452052011,
        "timestamp": "2025-12-05T16:54:14.924519+00:00",
        "meta_object_name": "FENGYUN 1C DEB",
        "meta_object_id": "1999-025AEJ",
        "meta_epoch": "2025-12-04T14:56:43.136736",
        "meta_mean_motion": 14.17997953,
        "meta_eccentricity": 0.0053063,
        "meta_inclination": 99.2394,
        "meta_ra_of_asc_node": 285.0842,
        "meta_arg_of_pericenter": 47.3465,
        "meta_mean_anomaly": 125.9503,
        "meta_ephemeris_type": 0,
        "meta_classification_type": "U",
        "meta_norad_cat_id": 30419,
        "meta_element_set_no": 999,
        "meta_rev_at_epoch": 97233,
        "meta_bstar": 0.0016255,
        "meta_mean_motion_dot": 3.329e-05,
        "meta_mean_motion_ddot": 0,
        "tle_line1": "1 30419U 99025AEJ 25338.62272149  .00003329  00000+0  16255-2 0  9993",
        "tle_line2": "2 30419  99.2394 285.0842 0053063  47.3465 125.9503 14.17997953972334"
      },
      "geometry": {
        "type": "Point",
        "coordinates": [
          -51.169543319990616,
          -67.06260630308944
        ]
      }
    },
    {
      "type": "Feature",
      "properties": {
        "norad_id": 30432,
        "name": "FENGYUN 1C DEB",
        "group": "fengyun-1c-debris",
        "lat": 70.74160300119178,
        "lon": -148.09279858855479,
        "alt_km": 731.7967201756701,
        "timestamp": "2025-12-05T16:54:14.924528+00:00",
        "meta_object_name": "FENGYUN 1C DEB",
        "meta_object_id": "1999-025AET",
        "meta_epoch": "2025-12-05T04:54:12.244896",
        "meta_mean_motion": 14.40622979,
        "meta_eccentricity": 0.00835099,
        "meta_inclination": 98.8358,
        "meta_ra_of_asc_node": 237.828,
        "meta_arg_of_pericenter": 1.2178,
        "meta_mean_anomaly": 358.9198,
        "meta_ephemeris_type": 0,
        "meta_classification_type": "U",
        "meta_norad_cat_id": 30432,
        "meta_element_set_no": 999,
        "meta_rev_at_epoch": 98626,
        "meta_bstar": 0.0014894393,
        "meta_mean_motion_dot": 4.905e-05,
        "meta_mean_motion_ddot": 0,
        "tle_line1": "1 30432U 99025AET 25339.20430839  .00004905  00000+0  14894-2 0  9993",
        "tle_line2": "2 30432  98.8358 237.8280 0083509   1.2178 358.9198 14.40622979986267"
      },
      "geometry": {
        "type": "Point",
        "coordinates": [
          -148.09279858855479,
          70.74160300119178
        ]
      }
    },
    {
      "type": "Feature",
      "properties": {
        "norad_id": 30434,
        "name": "FENGYUN 1C DEB",
        "group": "fengyun-1c-debris",
        "lat": 47.61024979720336,
        "lon": -43.2543570335932,
        "alt_km": 1003.7005360442226,
        "timestamp": "2025-12-05T16:54:14.924537+00:00",
        "meta_object_name": "FENGYUN 1C DEB",
        "meta_object_id": "1999-025AEV",
        "meta_epoch": "2025-12-03T06:02:06.716832",
        "meta_mean_motion": 13.90637415,
        "meta_eccentricity": 0.0120773,
        "meta_inclination": 98.9984,
        "meta_ra_of_asc_node": 324.3671,
        "meta_arg_of_pericenter": 257.2076,
        "meta_mean_anomaly": 117.5924,
        "meta_ephemeris_type": 0,
        "meta_classification_type": "U",
        "meta_norad_cat_id": 30434,
        "meta_element_set_no": 999,
        "meta_rev_at_epoch": 95575,
        "meta_bstar": 0.00051858,
        "meta_mean_motion_dot": 6.42e-06,
        "meta_mean_motion_ddot": 0,
        "tle_line1": "1 30434U 99025AEV 25337.25146663  .00000642  00000+0  51858-3 0  9993",
        "tle_line2": "2 30434  98.9984 324.3671 0120773 257.2076 117.5924 13.90637415955757"
      },
      "geometry": {
        "type": "Point",
        "coordinates": [
          -43.2543570335932,
          47.61024979720336
        ]
      }
    }
  ]
}